STARLINK-5454
1 54774U 22175S   24100.52217282  .00001245  00000+0  96324-4 0  9999
2 54774  53.2156 287.4860 0001364  80.1829 279.9317 15.08840119 72428
Imaginary_1
1 54774U 22175S   24100.52217282  .00001245  00000+0  96324-4 0  9999
2 54774  53.2156 287.4860 0001364  80.1829 39.9317 15.08840119 72428
Imaginary_2
1 54774U 22175S   24100.52217282  .00001245  00000+0  96324-4 0  9999
2 54774  53.2156 287.4860 0001364  80.1829 159.9317 15.08840119 72428
